#Pass ID: 20250127_221521_NOAA 20 (JPSS-1)
#Satellite: NOAA 20 (JPSS-1)
#Configuration: NOAA 20 (JPSS-1)
#Start time: 2025-01-27 22:15:26.443589

#LorettStation: 1.0.0 05.05.2024
#Station: Regia
#Location: 37.494653 lon 55.929028 lat
#TLE: 1 43013U 17073A   25026.91832200  .00000202  00000+0  11646-3 0  9993
#TLE: 2 43013  98.7297 327.3050 0000647   8.8887 351.2300 14.19544900372644

#Time	Az	El	Level	SNR
#Closed at: 2025-01-27 22:15:21.444401